SatCatId,ObjectName,LaunchYear,OrbitalPeriod,LaunchMass,StatusCode,Inclination,Status,UcsData,OrbitClassEstimated,LaunchSiteCountry,Owner,UseType,Purpose,LaunchVehicleClass,TLE1,TLE2,MeanMotion,Eccentricity,OrbitClass
38339,SDS-4,2012,97.83,50.0,+,98.19,Active,1,LEO,Japan,Japan,Government,Technology Development,H2A,1 38339U 12025C   23288.21354460  .00002233  00000+0  36381-3 0  9997,2 38339  98.1937   2.1972 0007615 163.2977 196.8482 14.71996895612286,14.71996895,0.0007615,LEO
38342,NIMIQ 6,2012,1436.08,4745.0,+,0.06,Active,1,GSO,Kazakhstan,Canada,Commercial,Communications,Breeze,1 38342U 12026A   23288.22781775 -.00000162  00000+0  00000+0 0  9991,2 38342   0.0594  79.0049 0002889 127.5910 167.8484  1.00272478 41814,1.00272478,0.0002889,GEO
38352,CHINASAT 2A (ZX 2A),2012,1436.07,5200.0,+,0.05,Active,1,GSO,PRC,China,Government/Military,Communications,Long March,1 38352U 12028A   23288.23966669 -.00000281  00000+0  00000+0 0  9994,2 38352   0.0448 326.1863 0004263 349.8436 252.0438  1.00273339 41850,1.00273339,0.0004263,GEO
38354,YAOGAN 15,2012,109.23,1040.0,+,100.74,Active,1,LEO,PRC,China,Military,Earth Observation,Long March,1 38354U 12029A   23288.17027588 -.00000027  00000+0  50952-4 0  9992,2 38354 100.7399  97.5423 0025122 339.1039  20.9045 13.18304263546831,13.18304263,0.0025122,LEO
38356,INTELSAT 19 (IS-19),2012,1436.11,5600.0,+,0.01,Active,1,GSO,Sea Launch Platform,INTELSAT,Commercial,Communications,Zenit,1 38356U 12030A   23287.85982581 -.00000045  00000+0  00000+0 0  9997,2 38356   0.0125 225.3796 0003018 339.2002 294.1016  1.00271071 40657,1.00271071,0.0003018,GEO
38358,NUSTAR,2012,96.44,360.0,+,6.03,Active,1,LEO,USA,USA,Government,Space Science,Pegasus,1 38358U 12031A   23287.42458425  .00008782  00000+0  74966-3 0  9999,2 38358   6.0269  73.7611 0009948 147.1597 212.9151 14.93111019617208,14.93111019,0.0009948,LEO
38551,ECHOSTAR 17,2012,1436.12,6100.0,+,0.02,Active,1,GSO,French Guiana,USA,Commercial,Communications,Ariane,1 38551U 12035A   23287.61582788 -.00000064  00000+0  00000+0 0  9999,2 38551   0.0200 211.2429 0002180 345.4737 300.7756  1.00269966 41272,1.00269966,0.000218,GEO
38552,METEOSAT-10 (MSG-3),2012,1436.1,2000.0,+,2.42,Active,1,GSO,French Guiana,EUMETSAT,Civil/Government,Earth Observation,Ariane,1 38552U 12035B   23287.89828977  .00000003  00000+0  00000+0 0  9995,2 38552   2.4212  58.0195 0000131 219.3429  68.7184  1.00271764 41062,1.00271764,1.31e-05,GSO
38652,SES-5,2012,1436.09,6007.0,+,0.05,Active,1,GSO,Kazakhstan,SES,Commercial,Communications,Proton,1 38652U 12036A   23287.89942105  .00000046  00000+0  00000+0 0  9994,2 38652   0.0506 298.2195 0001892 262.7320 151.0212  1.00271847 34699,1.00271847,0.0001892,GEO
38707,KANOPUS-V 1,2012,93.87,400.0,+,97.48,Active,1,LEO,Kazakhstan,Russia/USSR,Government,Earth Observation,Soyuz,1 38707U 12039A   23287.79178628  .00026830  00000+0  81540-3 0  9999,2 38707  97.4792 215.3347 0002415 102.4795 257.6717 15.34026846623285,15.34026846,0.0002415,LEO
38708,BKA 2,2012,93.78,400.0,+,97.28,Active,1,LEO,Kazakhstan,Belarus,Government,Earth Observation,Soyuz,1 38708U 12039B   23288.20802383  .00030578  00000+0  88328-3 0  9994,2 38708  97.2817 183.5538 0002467 100.8332 259.3189 15.35601373623407,15.35601373,0.0002467,LEO
38709,EXACTVIEW-1 (ADS-1B),2012,101.1,-1.0,+,98.96,Active,0,LEO,Kazakhstan,Canada,Unknown,Unknown,Soyuz,1 38709U 12039C   23288.17567191  .00000362  00000+0  17674-3 0  9990,2 38709  98.9645  10.3421 0011983 103.3314 256.9201 14.24301335583735,14.24301335,0.0011983,LEO
38711,MKA-PN 1,2012,101.08,-1.0,+,98.96,Active,0,LEO,Kazakhstan,Russia/USSR,Unknown,Unknown,Soyuz,1 38711U 12039E   23288.18093811  .00000422  00000+0  20132-3 0  9997,2 38711  98.9607   9.8670 0012568 102.6851 257.5733 14.24633805583831,14.24633805,0.0012568,LEO
38730,TIANLIAN 1-03,2012,1436.07,2200.0,+,3.24,Active,1,GSO,PRC,China,Government,Communications,Long March,1 38730U 12040A   23287.90246685  .00000139  00000+0  00000+0 0  9991,2 38730   3.2451  85.4233 0004117  40.3858 242.6783  1.00273936 38941,1.00273936,0.0004117,GSO
38733,COSMOS 2481,2012,115.9,280.0,+,82.47,Active,1,LEO,Russia,Russia/USSR,Military,Communications,Rokot,1 38733U 12041A   23287.90352592  .00000046  00000+0  26455-3 0  9993,2 38733  82.4742 323.8825 0019494  45.8704 314.3975 12.42402540508514,12.4240254,0.0019494,LEO
38734,GONETS-M 3,2012,115.68,-1.0,+,82.47,Active,0,LEO,Russia,Russia/USSR,Unknown,Unknown,Rokot,1 38734U 12041B   23287.91531226  .00000048  00000+0  26419-3 0  9990,2 38734  82.4729 316.2590 0017333  42.9146 317.3283 12.44849249509196,12.44849249,0.0017333,LEO
38736,GONETS-M 4,2012,115.77,-1.0,+,82.48,Active,0,LEO,Russia,Russia/USSR,Unknown,Unknown,Rokot,1 38736U 12041D   23287.89442871  .00000039  00000+0  20685-3 0  9995,2 38736  82.4782 320.7767 0025400  29.2140 331.0355 12.43852580501577,12.4385258,0.00254,LEO
38740,INTELSAT 20 (IS-20),2012,1436.11,6094.0,+,0.03,Active,1,GSO,French Guiana,INTELSAT,Commercial,Communications,Ariane,1 38740U 12043A   23287.91203934 -.00000013  00000+0  00000+0 0  9998,2 38740   0.0271 138.3449 0002729  51.8627 229.8345  1.00272595 40957,1.00272595,0.0002729,GEO
38741,HYLAS 2,2012,1436.12,3311.0,+,0.05,Active,1,GSO,French Guiana,UK,Commercial,Communications,Ariane,1 38741U 12043B   23287.90951970  .00000166  00000+0  00000+0 0  9996,2 38741   0.0496  81.3043 0001619 122.1330 178.2290  1.00270562 40974,1.00270562,0.0001619,GEO
38745,EXPRESS-MD2,2012,124.8,-1.0,P,49.87,Active,0,LEO,Kazakhstan,Russia/USSR,Unknown,Unknown,Unknown,1 38745U 12044B   23287.72479123  .00033413  34779-5  76801-3 0  9999,2 38745  49.8663 129.0814 1972139 230.6466 110.2652 11.53830595443669,11.53830595,0.1972139,LEO
38749,INTELSAT 21 (IS-21),2012,1436.07,5984.0,+,0.02,Active,1,GSO,Sea Launch Platform,INTELSAT,Commercial,Communications,Zenit,1 38749U 12045A   23287.88688981 -.00000273  00000+0  00000+0 0  9992,2 38749   0.0189 130.8366 0001934  68.7685  84.8768  1.00273445 40736,1.00273445,0.0001934,GEO
38755,SPOT 6,2012,98.73,720.0,+,98.18,Active,1,LEO,India,France,Commercial,Earth Observation,PSLV,1 38755U 12047A   23288.13518142  .00000995  00000+0  22362-3 0  9990,2 38755  98.1772 353.6718 0001005  90.7690 269.3625 14.58580726590805,14.58580726,0.0001005,LEO
38767,AEROCUBE 4.5A,2012,95.78,-1.0,+,64.67,Active,0,LEO,USA,USA,Unknown,Unknown,Unknown,1 38767U 12048K   23287.60013521  .00016233  00000+0  10589-2 0  9995,2 38767  64.6658  22.2752 0106991 111.9872 249.2655 15.03376780223328,15.0337678,0.0106991,LEO
38768,AEROCUBE 4.5B,2012,95.22,-1.0,+,64.66,Active,0,LEO,USA,USA,Unknown,Unknown,Unknown,1 38768U 12048L   23287.55015224  .00020388  00000+0  10793-2 0  9995,2 38768  64.6633 321.8776 0085767 102.8408 258.2313 15.12302173223996,15.12302173,0.0085767,LEO
38771,METOP-B,2012,101.3,4085.0,+,98.67,Active,1,LEO,Kazakhstan,EUMETSAT,Civil/Government,Earth Observation,Soyuz,1 38771U 12049A   23288.18454538  .00000345  00000+0  17748-3 0  9994,2 38771  98.6650 345.4744 0001150  91.5177   0.3503 14.21512896574590,14.21512896,0.000115,LEO
38775,BEIDOU-2 M6,2012,773.23,3800.0,+,55.72,Active,1,MEO,PRC,China,Government/Military,Navigation (Global or Regional Positioning),Long March,1 38775U 12050B   23287.64808024  .00000045  00000+0  00000+0 0  9999,2 38775  55.7229  95.4158 0010699 339.6703  20.3167  1.86231243 75124,1.86231243,0.0010699,MEO
38778,ASTRA 2F,2012,1436.08,6000.0,+,0.05,Active,1,GSO,French Guiana,SES,Commercial,Communications,Ariane,1 38778U 12051A   23288.17757630  .00000162  00000+0  00000+0 0  9998,2 38778   0.0467 239.3542 0004224 336.9205 259.3091  1.00273405 40500,1.00273405,0.0004224,GEO
38779,GSAT-10,2012,1436.1,3400.0,+,0.05,Active,1,GSO,French Guiana,India,Government,Communications,Ariane,1 38779U 12051B   23287.91491108 -.00000154  00000+0  00000+0 0  9997,2 38779   0.0558  91.4661 0003333 162.0118 182.1265  1.00271689 40320,1.00271689,0.0003333,GEO
38782,VRSS-1,2012,97.51,880.0,+,97.59,Active,1,LEO,PRC,Venezuela,Government,Earth Observation,Long March,1 38782U 12052A   23288.19497235  .00001584  00000+0  23212-3 0  9991,2 38782  97.5882 304.9282 0018655 179.9630 180.1586 14.76776922595400,14.76776922,0.0018655,LEO
38833,NAVSTAR 67 (USA 239),2012,717.96,1630.0,+,53.51,Active,1,MEO,USA,USA,Commercial/Military,Navigation (Global or Regional Positioning),Delta,1 38833U 12053A   23287.10268377  .00000031  00000+0  00000+0 0  9994,2 38833  53.5100 183.5682 0144608  52.7661 308.6147  2.00567944 79848,2.00567944,0.0144608,MEO
38857,GSAT0103 (GALILEO-FM3),2012,844.7,700.0,+,55.3,Active,1,MEO,French Guiana,ESA,Commercial,Navigation (Global or Regional Positioning),Soyuz,1 38857U 12055A   23287.81030833  .00000078  00000+0  00000+0 0  9995,2 38857  55.2986 128.3794 0002073 245.3465 114.7299  1.70473738 68505,1.70473738,0.0002073,MEO
38858,GSAT0104 (GALILEO-FM4),2012,844.7,700.0,+,55.3,Active,1,MEO,French Guiana,ESA,Commercial,Navigation (Global or Regional Positioning),Soyuz,1 38858U 12055B   23287.19312505  .00000077  00000+0  00000+0 0  9995,2 38858  55.2983 128.3978 0001174 142.2090 217.8995  1.70474004 68355,1.70474004,0.0001174,MEO
38860,SJ-9A,2012,97.22,-1.0,+,97.58,Active,1,LEO,PRC,China,Government,Technology Development,Long March,1 38860U 12056A   23288.21330321  .00001902  00000+0  24976-3 0  9999,2 38860  97.5836 288.9476 0027045 222.3372 137.5754 14.81126505594102,14.81126505,0.0027045,LEO
38861,SJ-9B,2012,97.04,-1.0,+,97.56,Active,1,LEO,PRC,China,Government,Technology Development,Long March,1 38861U 12056B   23287.99668091  .00003897  00000+0  47414-3 0  9999,2 38861  97.5610 300.6437 0016575 205.2172 154.8236 14.83897078594598,14.83897078,0.0016575,LEO
38867,INTELSAT 23 (IS-23),2012,1436.13,3200.0,+,0.02,Active,1,GSO,Kazakhstan,INTELSAT,Commercial,Communications,Proton,1 38867U 12057A   23287.88784706 -.00000273  00000+0  00000+0 0  9998,2 38867   0.0203 239.5749 0000768 342.4901  67.7505  1.00269336 40152,1.00269336,7.68e-05,GEO
